[
  {
    "name": "ONEWEB-0564",
    "noradId": "55801",
    "line1": "1 55801U 23029F   26156.09005352  .00000009  00000+0 -10231-4 0  9999",
    "line2": "2 55801  87.9193 276.8638 0002217 103.6020 256.5361 13.20772734159551"
  },
  {
    "name": "ONEWEB-0638",
    "noradId": "55802",
    "line1": "1 55802U 23029G   26154.46351618  .00000132  00000+0  32090-3 0  9990",
    "line2": "2 55802  87.8945 292.4893 0002107  82.9123 277.2246 13.14502063157597"
  },
  {
    "name": "ONEWEB-0639",
    "noradId": "55803",
    "line1": "1 55803U 23029H   26156.12867811  .00000200  00000+0  46625-3 0  9998",
    "line2": "2 55803  87.9160 307.3788 0000821 100.4099 259.7127 13.19727888157318"
  },
  {
    "name": "ONEWEB-0640",
    "noradId": "55804",
    "line1": "1 55804U 23029J   26156.07150392  .00000126  00000+0  30537-3 0  9994",
    "line2": "2 55804  87.8947 292.1591 0001746  75.9423 284.1901 13.14501803157828"
  },
  {
    "name": "ONEWEB-0641",
    "noradId": "55805",
    "line1": "1 55805U 23029K   26156.12392794  .00000068  00000+0  13826-3 0  9992",
    "line2": "2 55805  87.9165 307.3681 0001660  97.2090 262.9231 13.19727447157327"
  },
  {
    "name": "ONEWEB-0642",
    "noradId": "55806",
    "line1": "1 55806U 23029L   26156.11919530  .00000088  00000+0  18721-3 0  9996",
    "line2": "2 55806  87.9160 307.3820 0001084 111.4822 248.6426 13.19726969157314"
  },
  {
    "name": "ONEWEB-0643",
    "noradId": "55807",
    "line1": "1 55807U 23029M   26156.11749845  .00000080  00000+0  18046-3 0  9999",
    "line2": "2 55807  87.8946 292.1373 0001506 118.2420 241.8862 13.14502822157806"
  },
  {
    "name": "ONEWEB-0644",
    "noradId": "55808",
    "line1": "1 55808U 23029N   26156.11444789 -.00000018  00000+0 -77832-4 0  9991",
    "line2": "2 55808  87.9147 307.3868 0001621 114.7781 245.3521 13.19723428157317"
  },
  {
    "name": "ONEWEB-0645",
    "noradId": "55809",
    "line1": "1 55809U 23029P   26155.98492674  .00000058  00000+0  11300-3 0  9991",
    "line2": "2 55809  87.9158 307.4074 0001411  85.2028 274.9265 13.19727248157297"
  },
  {
    "name": "ONEWEB-0646",
    "noradId": "55810",
    "line1": "1 55810U 23029Q   26153.80363471 -.00000057  00000+0 -17583-3 0  9994",
    "line2": "2 55810  87.9154 307.8422 0001688 106.1464 253.9854 13.19725132156996"
  },
  {
    "name": "ONEWEB-0648",
    "noradId": "55811",
    "line1": "1 55811U 23029R   26156.08576435 -.00000112  00000+0 -33667-3 0  9997",
    "line2": "2 55811  87.8956 292.1155 0000968  87.5978 272.5262 13.14504257157806"
  },
  {
    "name": "ONEWEB-0649",
    "noradId": "55812",
    "line1": "1 55812U 23029S   26156.17921252  .00000012  00000+0 -12459-5 0  9995",
    "line2": "2 55812  87.9160 307.3666 0001557  92.8937 267.2374 13.19727145157342"
  },
  {
    "name": "ONEWEB-0650",
    "noradId": "55813",
    "line1": "1 55813U 23029T   26156.17445744  .00001525  00000+0  37761-2 0  9992",
    "line2": "2 55813  87.9158 307.3699 0001396 101.7375 258.3914 13.19740921157318"
  },
  {
    "name": "ONEWEB-0652",
    "noradId": "55814",
    "line1": "1 55814U 23029U   26156.06674441  .00000168  00000+0  41767-3 0  9993",
    "line2": "2 55814  87.8952 292.1276 0002029  97.7471 262.3889 13.14503519157778"
  },
  {
    "name": "ONEWEB-0653",
    "noradId": "55815",
    "line1": "1 55815U 23029V   26156.12700338  .00000195  00000+0  49075-3 0  9996",
    "line2": "2 55815  87.8955 292.1129 0001944  97.2877 262.8473 13.14502657157810"
  },
  {
    "name": "ONEWEB-0654",
    "noradId": "55816",
    "line1": "1 55816U 23029W   26156.12225088  .00000086  00000+0  19672-3 0  9990",
    "line2": "2 55816  87.8953 292.1103 0002240  95.4138 264.7247 13.14502958157837"
  },
  {
    "name": "ONEWEB-0656",
    "noradId": "55817",
    "line1": "1 55817U 23029X   26156.08333022  .00000233  00000+0  54031-3 0  9996",
    "line2": "2 55817  87.9190 276.8419 0002247  98.0144 262.1244 13.20772428159552"
  },
  {
    "name": "ONEWEB-0657",
    "noradId": "55818",
    "line1": "1 55818U 23029Y   26153.81942509 -.00000026  00000+0 -96908-4 0  9993",
    "line2": "2 55818  87.9159 307.8384 0002332 110.6459 249.4924 13.19726362157015"
  },
  {
    "name": "ONEWEB-0658",
    "noradId": "55819",
    "line1": "1 55819U 23029Z   26154.49703356 -.00000001  00000+0 -35805-4 0  9996",
    "line2": "2 55819  87.9168 307.6776 0001418 100.8472 259.2820 13.19726967157115"
  },
  {
    "name": "ONEWEB-0660",
    "noradId": "55820",
    "line1": "1 55820U 23029AA  26156.10004457 -.00000128  00000+0 -37847-3 0  9991",
    "line2": "2 55820  87.8962 292.1063 0001661  90.2586 269.8734 13.14503068157811"
  },
  {
    "name": "ONEWEB-0661",
    "noradId": "55821",
    "line1": "1 55821U 23029AB  26154.46034609  .00000218  00000+0  55433-3 0  9990",
    "line2": "2 55821  87.8943 292.4801 0001540  87.3980 272.7326 13.14501994157585"
  },
  {
    "name": "ONEWEB-0662",
    "noradId": "55822",
    "line1": "1 55822U 23029AC  26156.09370081 -.00000204  00000+0 -58513-3 0  9998",
    "line2": "2 55822  87.8944 292.1610 0001657  90.1234 270.0086 13.14501540157845"
  },
  {
    "name": "ONEWEB-0663",
    "noradId": "55823",
    "line1": "1 55823U 23029AD  26156.04215863  .00000092  00000+0  19353-3 0  9992",
    "line2": "2 55823  87.9192 276.9220 0001512  95.5776 264.5530 13.20868392159548"
  },
  {
    "name": "ONEWEB-0664",
    "noradId": "55824",
    "line1": "1 55824U 23029AE  26156.06984294  .00000072  00000+0  14517-3 0  9991",
    "line2": "2 55824  87.9177 276.8984 0002056  86.6023 273.5345 13.20771554159545"
  },
  {
    "name": "ONEWEB-0665",
    "noradId": "55825",
    "line1": "1 55825U 23029AF  26156.13177067  .00000209  00000+0  52937-3 0  9992",
    "line2": "2 55825  87.8946 292.1282 0001625  93.7009 266.4306 13.14502098157820"
  },
  {
    "name": "ONEWEB-0666",
    "noradId": "55826",
    "line1": "1 55826U 23029AG  26156.06311601  .00000027  00000+0  34762-4 0  9994",
    "line2": "2 55826  87.9177 276.8895 0002498 112.6427 247.4971 13.20769399159556"
  },
  {
    "name": "ONEWEB-0667",
    "noradId": "55827",
    "line1": "1 55827U 23029AH  26154.31567023  .00000020  00000+0  18235-4 0  9992",
    "line2": "2 55827  87.9191 277.1949 0001822  99.1302 261.0038 13.20771493159316"
  },
  {
    "name": "ONEWEB-0669",
    "noradId": "55828",
    "line1": "1 55828U 23029AJ  26156.05302075  .00000083  00000+0  17171-3 0  9996",
    "line2": "2 55828  87.9186 276.8603 0002448  91.5836 268.5578 13.20771078159542"
  },
  {
    "name": "ONEWEB-0670",
    "noradId": "55829",
    "line1": "1 55829U 23029AK  26154.43497632  .00001317  00000+0  35180-2 0  9991",
    "line2": "2 55829  87.8988 292.4816 0002187  96.4969 263.6410 13.14492551157620"
  },
  {
    "name": "ONEWEB-0671",
    "noradId": "55830",
    "line1": "1 55830U 23029AL  26156.16024971 -.00000129  00000+0 -35383-3 0  9995",
    "line2": "2 55830  87.9161 307.3730 0001721  91.6132 268.5198 13.19725656157312"
  }
]