OBJECT_NAME,OBJECT_ID,EPOCH,MEAN_MOTION,ECCENTRICITY,INCLINATION,RA_OF_ASC_NODE,ARG_OF_PERICENTER,MEAN_ANOMALY,EPHEMERIS_TYPE,CLASSIFICATION_TYPE,NORAD_CAT_ID,ELEMENT_SET_NO,REV_AT_EPOCH,BSTAR,MEAN_MOTION_DOT,MEAN_MOTION_DDOT
ONEWEB-0564,2023-029F,2026-06-05T02:09:40.624128,13.20772734,.0002217,87.9193,276.8638,103.6020,256.5361,0,U,55801,999,15955,-.10231E-4,.9E-7,0
ONEWEB-0638,2023-029G,2026-06-03T11:07:27.797952,13.14502063,.00021073,87.8945,292.4893,82.9123,277.2246,0,U,55802,999,15759,.3208963E-3,.132E-5,0
ONEWEB-0639,2023-029H,2026-06-05T03:05:17.788704,13.19727888,.0000821,87.9160,307.3788,100.4099,259.7127,0,U,55803,999,15731,.46625E-3,.2E-5,0
ONEWEB-0640,2023-029J,2026-06-05T01:42:57.938688,13.14501803,.0001746,87.8947,292.1591,75.9423,284.1901,0,U,55804,999,15782,.30537E-3,.126E-5,0
ONEWEB-0641,2023-029K,2026-06-05T02:58:27.374016,13.19727447,.000166,87.9165,307.3681,97.2090,262.9231,0,U,55805,999,15732,.13826E-3,.68E-6,0
ONEWEB-0642,2023-029L,2026-06-05T02:51:38.473920,13.19726969,.0001084,87.9160,307.3820,111.4822,248.6426,0,U,55806,999,15731,.18721E-3,.88E-6,0
ONEWEB-0643,2023-029M,2026-06-05T02:49:11.866080,13.14502822,.0001506,87.8946,292.1373,118.2420,241.8862,0,U,55807,999,15780,.18046E-3,.8E-6,0
ONEWEB-0644,2023-029N,2026-06-05T02:44:48.297696,13.19723428,.0001621,87.9147,307.3868,114.7781,245.3521,0,U,55808,999,15731,-.77832E-4,-.18E-6,0
ONEWEB-0645,2023-029P,2026-06-04T23:38:17.670336,13.19727248,.0001411,87.9158,307.4074,85.2028,274.9265,0,U,55809,999,15729,.113E-3,.58E-6,0
ONEWEB-0646,2023-029Q,2026-06-02T19:17:14.038944,13.19725132,.00016884,87.9154,307.8422,106.1464,253.9854,0,U,55810,999,15699,-.17582837E-3,-.57E-6,0
ONEWEB-0648,2023-029R,2026-06-05T02:03:30.039840,13.14504257,.0000968,87.8956,292.1155,87.5978,272.5262,0,U,55811,999,15780,-.33667E-3,-.112E-5,0
ONEWEB-0649,2023-029S,2026-06-05T04:18:03.961728,13.19727145,.0001557,87.9160,307.3666,92.8937,267.2374,0,U,55812,999,15734,-.12459E-5,.12E-6,0
ONEWEB-0650,2023-029T,2026-06-05T04:11:13.122816,13.19740921,.0001396,87.9158,307.3699,101.7375,258.3914,0,U,55813,999,15731,.37761E-2,.1525E-4,0
ONEWEB-0652,2023-029U,2026-06-05T01:36:06.717024,13.14503519,.0002029,87.8952,292.1276,97.7471,262.3889,0,U,55814,999,15777,.41767E-3,.168E-5,0
ONEWEB-0653,2023-029V,2026-06-05T03:02:53.092032,13.14502657,.0001944,87.8955,292.1129,97.2877,262.8473,0,U,55815,999,15781,.49075E-3,.195E-5,0
ONEWEB-0654,2023-029W,2026-06-05T02:56:02.476032,13.14502958,.000224,87.8953,292.1103,95.4138,264.7247,0,U,55816,999,15783,.19672E-3,.86E-6,0
ONEWEB-0656,2023-029X,2026-06-05T01:59:59.731008,13.20772428,.0002247,87.9190,276.8419,98.0144,262.1244,0,U,55817,999,15955,.54031E-3,.233E-5,0
ONEWEB-0657,2023-029Y,2026-06-02T19:39:58.327776,13.19726362,.00023329,87.9159,307.8384,110.6459,249.4924,0,U,55818,999,15701,-.969077E-4,-.26E-6,0
ONEWEB-0658,2023-029Z,2026-06-03T11:55:43.699584,13.19726967,.0001418,87.9168,307.6776,100.8472,259.2820,0,U,55819,999,15711,-.35805E-4,-.1E-7,0
ONEWEB-0660,2023-029AA,2026-06-05T02:24:03.850848,13.14503068,.0001661,87.8962,292.1063,90.2586,269.8734,0,U,55820,999,15781,-.37847E-3,-.128E-5,0
ONEWEB-0661,2023-029AB,2026-06-03T11:02:53.902176,13.14501994,.00015404,87.8943,292.4801,87.3980,272.7326,0,U,55821,999,15758,.55432756E-3,.218E-5,0
ONEWEB-0662,2023-029AC,2026-06-05T02:14:55.749984,13.14501540,.0001657,87.8944,292.1610,90.1234,270.0086,0,U,55822,999,15784,-.58513E-3,-.204E-5,0
ONEWEB-0663,2023-029AD,2026-06-05T01:00:42.505632,13.20868392,.0001512,87.9192,276.9220,95.5776,264.5530,0,U,55823,999,15954,.19353E-3,.92E-6,0
ONEWEB-0664,2023-029AE,2026-06-05T01:40:34.430016,13.20771554,.0002056,87.9177,276.8984,86.6023,273.5345,0,U,55824,999,15954,.14517E-3,.72E-6,0
ONEWEB-0665,2023-029AF,2026-06-05T03:09:44.985888,13.14502098,.0001625,87.8946,292.1282,93.7009,266.4306,0,U,55825,999,15782,.52937E-3,.209E-5,0
ONEWEB-0666,2023-029AG,2026-06-05T01:30:53.223264,13.20769399,.0002498,87.9177,276.8895,112.6427,247.4971,0,U,55826,999,15955,.34762E-4,.27E-6,0
ONEWEB-0667,2023-029AH,2026-06-03T07:34:33.907872,13.20771493,.00018227,87.9191,277.1949,99.1302,261.0038,0,U,55827,999,15931,.18234756E-4,.2E-6,0
ONEWEB-0669,2023-029AJ,2026-06-05T01:16:20.992800,13.20771078,.0002448,87.9186,276.8603,91.5836,268.5578,0,U,55828,999,15954,.17171E-3,.83E-6,0
ONEWEB-0670,2023-029AK,2026-06-03T10:26:21.954048,13.14492551,.0002187,87.8988,292.4816,96.4969,263.6410,0,U,55829,999,15762,.35180427E-2,.1317E-4,0
ONEWEB-0671,2023-029AL,2026-06-05T03:50:45.574944,13.19725656,.0001721,87.9161,307.3730,91.6132,268.5198,0,U,55830,999,15731,-.35383E-3,-.129E-5,0
